{"fetched_at":"2026-05-27T15:37:29Z","count":4342,"tles":[{"name":"STARLINK-32597","line1":"1 62304U 24239D   26146.35512097  .00012779  00000+0  44274-3 0  9995","line2":"2 62304  53.1596 180.4746 0001389  92.9481 267.1679 15.30207304 81451","category":"Starlink"},{"name":"LEMUR-2-MANO","line1":"1 57390U 23100E   26145.20034711  .05189989  37333-5  11615-2 0  9995","line2":"2 57390  99.4501 195.7338 0031480 223.1703 136.7115 16.28673702158554","category":"Other"},{"name":"FENGYUN 1C DEB","line1":"1 31195U 99025BJZ 26103.80289480  .00000298  00000+0  17500-3 0  9999","line2":"2 31195  98.7615 138.7453 0171520 196.7696 162.7759 14.08049834978167","category":"Weather"},{"name":"YAOGAN-50 02","line1":"1 68196U 26051A   26147.13322389  .00000314  00000+0  11511-3 0  9994","line2":"2 68196 141.9859 225.9148 0001033 291.8124  68.2486 13.83263741 10074","category":"Other"},{"name":"COSMOS 2251 DEB","line1":"1 39587U 93036BUS 23177.51415012  .00046020  00000+0  15268-2 0  9997","line2":"2 39587  73.9954 263.2787 0060764 220.0019 139.6700 15.29220052717383","category":"Other"},{"name":"STARLINK-4520","line1":"1 53400U 22097N   26147.16270722 -.00000597  00000+0 -19396-4 0  9993","line2":"2 53400  53.2070 131.8407 0001603  70.0345 290.0819 15.08846006210363","category":"Starlink"},{"name":"STARLINK-32083","line1":"1 60343U 24136Q   26147.05790542  .00000039  00000+0  13453-4 0  9995","line2":"2 60343  53.1607  71.5749 0001324  88.2854 271.8299 15.30193491101666","category":"Starlink"},{"name":"STARLINK-35065","line1":"1 65441U 25194H   26147.17024535  .00004137  00000+0  29050-3 0  9991","line2":"2 65441  97.4397   1.2784 0002842  72.8874 287.2665 15.05658739 41454","category":"Starlink"},{"name":"FENGYUN 1C DEB","line1":"1 31385U 99025BSR 26100.75640402  .00000457  00000+0  13334-3 0  9994","line2":"2 31385  98.9472 202.0972 0134247  61.4515  89.7336 14.44195089  3336","category":"Weather"},{"name":"STARLINK-2157","line1":"1 47743U 21017X   23361.87465353  .00006189  00000+0  43371-3 0  9996","line2":"2 47743  53.0528 205.5981 0001398  92.3367 267.7782 15.06425534156894","category":"Starlink"},{"name":"STARLINK-6371","line1":"1 57381U 23099BF  26147.06218204  .00000420  00000+0  24769-4 0  9997","line2":"2 57381  43.0023 141.0835 0000726 271.7717  88.3052 15.27585374159139","category":"Starlink"},{"name":"STARLINK-33789","line1":"1 63657U 25083Z   26146.46876679  .00019973  00000+0  73324-3 0  9997","line2":"2 63657  42.9971 285.8205 0001201 239.5576 120.5157 15.27585555 61996","category":"Starlink"},{"name":"STARLINK-6195","line1":"1 76195C 23083AC  23172.25187500 -.00545192  00000-0 -41055-2 0  1725","line2":"2 76195  43.0057  90.6487 0001337 266.2335  88.8796 15.72114144    11","category":"Starlink"},{"name":"STARLINK-35907","line1":"1 66498U 25263P   26146.74115934  .00013710  00000+0  50650-3 0  9994","line2":"2 66498  43.0025 270.1031 0001558 256.2028 103.8651 15.27600209 30837","category":"Starlink"},{"name":"ONEWEB-0241","line1":"1 48773U 21045G   26147.04140402 -.00000068  00000+0 -21444-3 0  9999","line2":"2 48773  87.8990 263.4200 0001471 103.3951 256.7343 13.15546861241551","category":"Other"},{"name":"STARLINK-30812","line1":"1 58168U 23166U   26147.20373002  .00000260  00000+0  20908-4 0  9993","line2":"2 58168  53.1602 214.6788 0001060  76.7768 283.3351 15.30198751145051","category":"Starlink"},{"name":"SL-6 R/B(2)","line1":"1 21429U 91043D   26099.50197425  .00000969  00000+0  00000+0 0  9996","line2":"2 21429  63.6949 255.4496 6868304 262.5422  21.1409  1.96662792250013","category":"Other"},{"name":"KANOPUS-V 4","line1":"1 43181U 18014B   26147.21718389  .00002941  00000+0  12857-3 0  9991","line2":"2 43181  97.3609  53.3189 0002021  82.1787 277.9679 15.22856775461545","category":"Other"},{"name":"FALCON 9 R/B","line1":"1 54260U 22157B   26104.84305351  .00002495  00000+0  14951-2 0  9997","line2":"2 54260  22.0093 357.9614 7749183 343.9857   1.5558  1.71388133 18297","category":"Other"},{"name":"PRISM (HITOMI)","line1":"1 33493U 09002B   25105.81745199  .09999459  29698-5  15791-2 0  9998","line2":"2 33493  98.1284 195.2006 0015204 276.0900  83.8661 16.33501591885631","category":"Other"},{"name":"NOOR-2","line1":"1 51954U 22024A   24137.98463820  .06294176  10885-4  12107-2 0  9995","line2":"2 51954  58.2472  88.9430 0004315 274.6458  85.4158 16.31234740123104","category":"Other"},{"name":"STARLINK-31405","line1":"1 59248U 24049T   26147.14907360 -.00000163  00000+0  36053-5 0  9999","line2":"2 59248  43.0051  60.5899 0001186 281.0552  79.0166 15.27579087124398","category":"Starlink"},{"name":"STARLINK-34243","line1":"1 64361U 25126T   26147.21649808  .00002900  00000+0  25069-3 0  9999","line2":"2 64361  70.0008 196.4924 0003958 267.1925  92.8781 14.98336738 52441","category":"Starlink"},{"name":"FENGYUN 1C DEB","line1":"1 30024U 99025MZ  23178.34124139  .00026817  00000+0  10371-2 0  9999","line2":"2 30024  98.6082  92.9414 0133647  37.9075 323.1472 15.18196846893290","category":"Weather"},{"name":"STARLINK-1488","line1":"1 45775U 20038AX  23361.85333148  .00069200  00000+0  25891-2 0  9994","line2":"2 45775  53.0716 168.9664 0001507 315.1255  44.9621 15.26701417197172","category":"Starlink"},{"name":"CHECKMATE 6","line1":"1 56165U 23050D   26146.83949865  .00000097  00000+0  74915-4 0  9999","line2":"2 56165  81.0038  92.3739 0011000  11.5628 348.5780 13.86173978159141","category":"Other"},{"name":"STARLINK-11257 [DTC]","line1":"1 61201U 24171B   26147.17312780  .00003692  00000+0  35337-4 0  9998","line2":"2 61201  53.1587 149.5000 0000363  25.1272 334.9764 15.69689788 96728","category":"Starlink"},{"name":"STARLINK-36224","line1":"1 67203U 25304M   26146.93022154  .00003197  00000+0  27558-3 0  9996","line2":"2 67203  70.0011 337.2074 0002518 264.2871  95.8001 14.98336937 25600","category":"Starlink"},{"name":"STARLINK-11532 [DTC]","line1":"1 62596U 25008K   25043.12271711  .00000534  00000+0  59353-5 0  9990","line2":"2 62596  42.9971 321.6893 0001412 278.3738  81.6972 15.77848584  5678","category":"Starlink"},{"name":"STARLINK-37056","line1":"1 68260U 26054AE  26146.89265417  .00058248  00000+0  10466-2 0  9995","line2":"2 68260  53.1570 289.4683 0000811  82.5382 277.5719 15.49334122 11029","category":"Starlink"},{"name":"FLOCK 1C-11","line1":"1 40033C 14033Z   23256.33901620  .00019623  00000-0  14535-2 0  2560","line2":"2 40033  98.0995 229.5775 0012042 334.6171 351.9341 15.03143152    15","category":"Other"},{"name":"STARLINK-4445","line1":"1 53474U 22099K   26146.82864505 -.00011483  00000+0 -79179-3 0  9996","line2":"2 53474  97.4416 266.7434 0001848 187.9564 172.1635 15.05710893207732","category":"Starlink"},{"name":"STARLINK-11136 [DTC]","line1":"1 60407U 24141K   26147.01884580  .00000053  00000+0  52980-5 0  9999","line2":"2 60407  53.1593  60.2516 0000956  83.4894 276.6233 15.69708036103997","category":"Starlink"},{"name":"STARLINK-35072","line1":"1 65505U 25198P   26147.05926459  .00017972  00000+0  54177-3 0  9998","line2":"2 65505  53.1616 265.9245 0001308 104.5857 255.5291 15.34398962 40632","category":"Starlink"},{"name":"FENGYUN 1C DEB","line1":"1 31486U 99025BWA 23178.97917572  .00008581  00000+0  28985-2 0  9990","line2":"2 31486 102.2753  12.8633 0022582  88.2737 272.1021 14.37151247838369","category":"Weather"},{"name":"STARLINK-2399","line1":"1 47816U 21018AF  26147.00002315  .00003434  00000+0  12249-3 0  9993","line2":"2 47816  53.1585 253.9504 0001342  86.7308 315.4950 15.31671649  5594","category":"Starlink"},{"name":"STARLINK-30225","line1":"1 57449U 23105V   26147.15581802  .00000684  00000+0  34395-4 0  9995","line2":"2 57449  43.0044 179.9882 0001880 275.3486  84.7151 15.27578330157608","category":"Starlink"},{"name":"STARLINK-33774","line1":"1 63721U 25087AA  26146.42793158  .00026978  00000+0  87771-3 0  9993","line2":"2 63721  53.1581 218.3321 0001156  97.6220 262.4912 15.31709156 61105","category":"Starlink"},{"name":"UNKNOWN","line1":"1 81264U          23325.48700490  .00017053  00000+0  25504-2 0  9991","line2":"2 81264  99.4086  56.1565 0081097 111.7012 249.2850 14.72561256499017","category":"Other"},{"name":"STARLINK-35358","line1":"1 66564U 25268H   26147.03643722  .00019641  00000+0  72110-3 0  9991","line2":"2 66564  43.0048 264.4471 0001670 262.1361  97.9301 15.27591768 29945","category":"Starlink"},{"name":"FENGYUN 1C DEB","line1":"1 33676U 99025DFM 26100.03958902  .00000451  00000+0  13796-3 0  9993","line2":"2 33676  99.0810 135.9530 0204824  83.6258 278.8207 14.35705656670089","category":"Weather"},{"name":"SPACEBEE-109","line1":"1 48897U 21059U   23361.92229292  .00136462  00000+0  16737-2 0  9992","line2":"2 48897  97.6067 147.7302 0005491 302.4065  57.6659 15.59854956139284","category":"Other"},{"name":"STARLINK-30880","line1":"1 58232U 23171C   26147.18514580 -.00013050  00000+0 -46658-3 0  9998","line2":"2 58232  43.0014 201.5716 0002565 284.3230  75.7337 15.27503512141746","category":"Starlink"},{"name":"SCD 1","line1":"1 22490U 93009B   26146.85370468  .00000416  00000+0  62753-4 0  9995","line2":"2 22490  24.9712 339.2967 0041727 272.2707 218.0511 14.46109745758022","category":"Other"},{"name":"ZHUHAI-1 OHS-03","line1":"1 43442U 18040D   23362.43898621  .00031926  00000+0  77947-3 0  9994","line2":"2 43442  97.1583  48.5813 0002075 213.4241 146.6876 15.40787453315171","category":"Other"},{"name":"FENGYUN 1C DEB","line1":"1 36263U 99025DWQ 26100.14875654  .00005078  00000+0  13905-2 0  9993","line2":"2 36263  98.9926 353.4584 0034395 272.3892  87.3360 14.47291440896976","category":"Weather"},{"name":"STARLINK-31530","line1":"1 59322U 24057C   26147.18656339  .00099020  00000+0  92587-3 0  9993","line2":"2 59322  42.9878  84.6052 0024466 184.7424 175.3213 15.65840650122061","category":"Starlink"},{"name":"STARLINK-34452","line1":"1 64425U 25129P   26147.22546333  .00002023  00000+0  17728-3 0  9992","line2":"2 64425  70.0011 236.3370 0003216 264.5331  95.5461 14.98335209 53059","category":"Starlink"}]}